STARLINK-5790           
1 56036U 23042BC  23107.27415727  .00041924  00000+0  32124-3 0  9993
2 56036  43.0027  51.5471 0002151 263.8606  96.2017 15.71376505  3739
STARLINK-5758           
1 56037U 23042BD  23107.21048961  .00013404  00000+0  10544-3 0  9994
2 56037  43.0025  51.9264 0002102 249.6908 110.3734 15.71367937  3727
STARLINK-5793           
1 56038U 23042BE  23107.21070108  .00006997  00000+0  56739-4 0  9999
2 56038  43.0028  51.9318 0001401 256.9158 103.1554 15.71363870  3722
STARLINK-5795           
1 56039U 23042BF  23107.27394819  .00012727  00000+0  10031-3 0  9996
2 56039  43.0013  51.5438 0001264 242.2628 117.8111 15.71364929  3731
STARLINK-5798           
1 56040U 23042BG  23107.21028070  .00011622  00000+0  91920-4 0  9995
2 56040  43.0020  51.9272 0001784 247.8223 112.2455 15.71363151  3725
STARLINK-5800           
1 56041U 23042BH  23107.21014170  .00008059  00000+0  65020-4 0  9994
2 56041  43.0032  51.9258 0001270 304.9530  55.1219 15.71288572  4063
FALCON 9 DEB            
1 56042U 23042BJ  23107.23325074  .00762073  28252-3  12090-2 0  9998
2 56042  43.0101  48.5224 0024040 166.0600 194.0948 16.02349921  3760
FALCON 9 DEB            
1 56043U 23042BK  23107.22197602  .00823078  34099-3  11993-2 0  9992
2 56043  43.0042  48.4197 0022665 169.9544 190.1793 16.03827193  3761
FALCON 9 DEB            
1 56044U 23042BL  23107.20300731  .00797580  32519-3  10831-2 0  9993
2 56044  43.0038  48.2534 0020160 162.3201 197.8385 16.05080010  3767
FALCON 9 DEB            
1 56045U 23042BM  23107.20827793  .00711008  24844-3  10626-2 0  9991
2 56045  42.9984  48.2909 0020003 164.1317 196.0193 16.03518415  3767
ONEWEB-0537             
1 56046U 23043A   23107.91667824 -.01067378  00000+0 -42717-1 0  9994
2 56046  87.3136 134.5537 0014818 177.6176 315.8883 15.27837973  1308
ONEWEB-0538             
1 56047U 23043B   23107.91667824 -.01068199  00000+0 -42379-1 0  9991
2 56047  87.3168 134.5567 0014644 176.6876 329.5765 15.28128004  1300
ONEWEB-0546             
1 56048U 23043C   23107.91667824 -.01009246  00000+0 -39545-1 0  9991
2 56048  87.3150 134.5486 0014203 173.8734 349.4252 15.28388221  1306
ONEWEB-0547             
1 56049U 23043D   23107.91667824 -.01220283  00000+0 -46157-1 0  9995
2 56049  87.3401 134.5466 0010882 167.2786  92.9222 15.30142033  1306
ONEWEB-0548             
1 56050U 23043E   23107.91667824 -.01072246  00000+0 -44189-1 0  9994
2 56050  87.3097 134.5603 0014700 181.0383 281.4688 15.26892103  1308
ONEWEB-0549             
1 56051U 23043F   23107.91667824 -.01220970  00000+0 -47161-1 0  9997
2 56051  87.3373 134.5525 0012063 167.3186  67.4383 15.29446874  1304
ONEWEB-0550             
1 56052U 23043G   23107.91667824 -.01219449  00000+0 -48273-1 0  9992
2 56052  87.3332 134.5514 0013303 168.0585  33.1360 15.28623935  1306
ONEWEB-0551             
1 56053U 23043H   23107.85099072  .00023326  00000+0  69293-3 0  9991
2 56053  87.4342 134.6551 0012164 194.0122 166.0795 15.34583260  3494
ONEWEB-0552             
1 56054U 23043J   23107.91667824 -.01214509  00000+0 -48552-1 0  9996
2 56054  87.3332 134.5577 0014050 172.4348  10.5328 15.28276781  1309
ONEWEB-0553             
1 56055U 23043K   23107.91667824 -.01070866  00000+0 -42548-1 0  9992
2 56055  87.3162 134.5567 0014171 175.0226 339.0132 15.28095692  1300
ONEWEB-0554             
1 56056U 23043L   23107.91667824 -.01081681  00000+0 -42411-1 0  9999
2 56056  87.3188 134.5551 0013770 172.4192   0.6207 15.28564096  1302
ONEWEB-0555             
1 56057U 23043M   23107.91667824 -.01085410  00000+0 -44058-1 0  9993
2 56057  87.3112 134.5560 0014443 182.2565 283.3813 15.27429640  1308
ONEWEB-0557             
1 56058U 23043N   23107.91667824 -.00975799  00000+0 -37725-1 0  9994
2 56058  87.3182 134.5495 0013847 172.0935   6.0336 15.28744581  1303
ONEWEB-0558             
1 56059U 23043P   23107.91667824 -.01219457  00000+0 -42208-1 0  9990
2 56059  87.3609 134.5547 0010754 167.5609 131.4473 15.32975605  1300
ONEWEB-0559             
1 56060U 23043Q   23107.91667824 -.01223190  00000+0 -46839-1 0  9995
2 56060  87.3388 134.5498 0011939 167.1342  75.2604 15.29734997  1301
ONEWEB-0566             
1 56061U 23043R   23107.91667824 -.01207151  00000+0 -47322-1 0  9993
2 56061  87.3355 134.5563 0013109 168.0900  38.7408 15.28912018  1307
ONEWEB-0568             
1 56062U 23043S   23107.91667824 -.01092405  00000+0 -46687-1 0  9991
2 56062  87.3037 134.5596 0013063 193.3659 199.6945 15.25777587  1302
ONEWEB-0574             
1 56063U 23043T   23107.91667824 -.01222601  00000+0 -45468-1 0  9991
2 56063  87.3404 134.5366 0010384 170.1671 109.5416 15.30701030  1305
ONEWEB-0575             
1 56064U 23043U   23107.91667824 -.01103526  00000+0 -47260-1 0  9998
2 56064  87.3036 134.5652 0013639 191.6501 212.7804 15.25728413  1307
ONEWEB-0576             
1 56065U 23043V   23107.91667824 -.01096691  00000+0 -45593-1 0  9990
2 56065  87.3107 134.5692 0014287 184.9638 257.9419 15.26677750  1308
ONEWEB-0577             
1 56066U 23043W   23107.91667824 -.01089391  00000+0 -39279-1 0  9994
2 56066  87.3524 134.5797 0014457 188.2496 310.5196 15.31274683  1308
ONEWEB-0578             
1 56067U 23043X   23107.91667824 -.01212956  00000+0 -46939-1 0  9991
2 56067  87.3366 134.5482 0012235 167.4551  63.1370 15.29362258  1305
ONEWEB-0579             
1 56068U 23043Y   23107.91667824 -.01223335  00000+0 -45003-1 0  9996
2 56068  87.3448 134.5466 0009876 173.0058 124.7060 15.31060037  1304
ONEWEB-0581             
1 56069U 23043Z   23107.91667824 -.01105082  00000+0 -46294-1 0  9998
2 56069  87.3072 134.5615 0014358 188.1545 238.5542 15.26447295  1301
ONEWEB-0609             
1 56070U 23043AA  23107.91667824 -.01210568  00000+0 -60862-1 0  9993
2 56070  87.4739 134.6478 0009908 168.1957 192.9298 15.20187459  1300
ONEWEB-0613             
1 56071U 23043AB  23107.91667824 -.01290591  00000+0 -69858-1 0  9992
2 56071  87.4767 134.6665 0014022 189.6799  10.3396 15.17771089  1301
ONEWEB-0630             
1 56072U 23043AC  23107.91667824 -.01295442  00000+0 -70459-1 0  9992
2 56072  87.4733 134.6615 0014005 184.7446  27.7680 15.17616331  1302
ONEWEB-0632             
1 56073U 23043AD  23107.91667824 -.01294477  00000+0 -70371-1 0  9993
2 56073  87.4768 134.6463 0008259 181.1862 156.1594 15.17721171  1309
ONEWEB-0633             
1 56074U 23043AE  23107.91667824 -.01345891  00000+0 -66791-1 0  9992
2 56074  87.4516 134.6296 0009263 172.4260 199.4997 15.20965943  1304
ONEWEB-0634             
1 56075U 23043AF  23107.91667824 -.01115617  00000+0 -55018-1 0  9994
2 56075  87.4672 134.6352 0009800 163.6752 195.7543 15.21090880  1290
ONEWEB-0635             
1 56076U 23043AG  23107.91667824 -.00894694  00000+0 -47644-1 0  9999
2 56076  87.4764 134.6740 0014747 182.4476  38.5100 15.17748232  1303
ONEWEB-0636             
1 56077U 23043AH  23107.91667824 -.01326803  00000+0 -74135-1 0  9998
2 56077  87.4824 134.6646 0012096 165.2309 106.5512 15.16790197  1304
ONEWEB-0637             
1 56078U 23043AJ  23107.91667824 -.01284705  00000+0 -68109-1 0  9997
2 56078  87.4716 134.6680 0011888 195.5088 345.9772 15.18512484  1301
ONEWEB-0647             
1 56079U 23043AK  23107.91667824 -.01323590  00000+0 -72503-1 0  9997
2 56079  87.4758 134.6570 0013375 167.5550 110.2597 15.17450195  1309
ONEWEB-0651             
1 56080U 23043AL  23107.91667824 -.01179751  00000+0 -61243-1 0  9996
2 56080  87.4706 134.6527 0014075 177.0478  95.2716 15.18946854  1307
ONEWEB-0718             
1 56081U 23043AM  23107.91667824 -.01301343  00000+0 -69278-1 0  9997
2 56081  87.4726 134.6499 0012295 168.8707 127.7806 15.18402970  1300
GSLV R/B                
1 56082U 23043AN  23107.57215925  .00026917  00000+0  70503-3 0  9994
2 56082  87.4156 134.7048 0021702 302.5254  57.3903 15.38327530  3450
COSMOS 2568             
1 56091U 23045A   23107.92606326  .00047223  00000+0  25870-3 0  9994
2 56091  96.4598 197.3390 0011912 217.1754 266.1551 15.79592164  3005
SL-4 R/B                
1 56092U 23045B   23107.75457416  .00144464  00000+0  67389-3 0  9996
2 56092  96.4603 197.2516 0014045 214.1294 145.9074 15.82780863  2998
STARLINK-6102           
1 56093U 23046A   23107.91667824 -.00864129  00000+0 -15300-1 0  9995
2 56093  42.9999 149.7741 0001541 273.7512 146.5535 15.52094623  1308
STARLINK-6109           
1 56094U 23046B   23107.91667824 -.00864359  00000+0 -15285-1 0  9993
2 56094  42.9996 149.7641 0001533 270.6281 153.2993 15.52129738  1304
STARLINK-6090           
1 56095U 23046C   23107.91667824 -.00863552  00000+0 -15280-1 0  9993
2 56095  43.0000 149.7714 0001531 270.0588 151.4253 15.52110594  1305
STARLINK-6089           
1 56096U 23046D   23107.91667824 -.00865507  00000+0 -15298-1 0  9995
2 56096  43.0001 149.7619 0001502 271.7873 153.3187 15.52146591  1307
STARLINK-6077           
1 56097U 23046E   23107.58499160  .00083643  00000+0  63473-3 0  9996
2 56097  42.9996 149.9426 0001111 283.3027  76.7717 15.71362221  2964
STARLINK-6088           
1 56098U 23046F   23107.91667824 -.00871623  00000+0 -15431-1 0  9992
2 56098  42.9997 149.7674 0001537 277.5957 145.1478 15.52120311  1301
STARLINK-6093           
1 56099U 23046G   23107.91667824 -.00863063  00000+0 -15233-1 0  9992
2 56099  43.0002 149.7571 0001544 266.2396 161.2211 15.52178281  1300
STARLINK-6076           
1 56100U 23046H   23107.91667824 -.00865365  00000+0 -15268-1 0  9990
2 56100  42.9992 149.7524 0001505 274.3087 154.3291 15.52195691  1306
STARLINK-6095           
1 56101U 23046J   23107.91667824 -.00864325  00000+0 -15239-1 0  9994
2 56101  43.0003 149.7512 0001520 274.4730 155.3411 15.52211695  1300
STARLINK-6075           
1 56102U 23046K   23107.91667824 -.00863722  00000+0 -15255-1 0  9993
2 56102  42.9997 149.7588 0001510 272.8876 153.3964 15.52161802  1301
